GLOBALSTAR M075         
1 37192U 10054E   25210.85353072 -.00000098  00000+0  31965-4 0  9990
2 37192  51.9957  51.6274 0000806  76.9708  27.7063 12.62266404681234
GLOBALSTAR M073         
1 37193U 10054F   25210.77810213 -.00000094  00000+0  56218-4 0  9991
2 37193  52.0083 325.7088 0000826 101.6551  20.7414 12.62272630683210
GLOBALSTAR M083         
1 37739U 11033A   25210.55985208 -.00000087  00000+0  92947-4 0  9999
2 37739  51.9855 275.0511 0000292 118.3418  29.5382 12.62260524652567
GLOBALSTAR M088         
1 37740U 11033B   25210.69659644 -.00000107  00000+0 -16558-4 0  9996
2 37740  52.0194 180.2748 0000142  14.8179 155.9947 12.62266944647763
GLOBALSTAR M091         
1 37741U 11033C   25210.55121366 -.00000089  00000+0  81836-4 0  9996
2 37741  51.9989 144.1581 0000515  10.7254 159.9516 12.62269442648539
GLOBALSTAR M085         
1 37742U 11033D   25210.83385677 -.00000089  00000+0  83537-4 0  9995
2 37742  52.0125  94.3083 0000715  36.4327  39.7535 12.62263850649089
GLOBALSTAR M081         
1 37743U 11033E   25210.86110376 -.00000085  00000+0  10664-3 0  9997
2 37743  51.9958  97.0308 0000852  49.6274  28.8099 12.62267206649231
GLOBALSTAR M089         
1 37744U 11033F   25210.80684094 -.00000100  00000+0  20982-4 0  9998
2 37744  51.9939  51.4142 0000998  89.0123 283.8393 12.62265553650070
